CCSDS_OMM_VERS = 2.0
CREATION_DATE  = 
ORIGINATOR     = 

OBJECT_NAME    = STARLINK-36953
OBJECT_ID      = 2026-039AA
CENTER_NAME    = EARTH
REF_FRAME      = TEME
TIME_SYSTEM    = UTC
MEAN_ELEMENT_THEORY = SGP/SGP4

EPOCH          = 2026-03-28T14:00:01.999872
MEAN_MOTION    = 15.27478063
ECCENTRICITY   = .00020393
INCLINATION    = 42.9991
RA_OF_ASC_NODE = 302.0356
ARG_OF_PERICENTER = 272.2196
MEAN_ANOMALY   = 136.5405

EPHEMERIS_TYPE = 0
CLASSIFICATION_TYPE = U
NORAD_CAT_ID   = 68010
ELEMENT_SET_NO = 999
REV_AT_EPOCH   = 591
BSTAR          = .21967216E-2
MEAN_MOTION_DOT = .60497E-3
MEAN_MOTION_DDOT = 0

CCSDS_OMM_VERS = 2.0
CREATION_DATE  = 
ORIGINATOR     = 

OBJECT_NAME    = STARLINK-36991
OBJECT_ID      = 2026-039AB
CENTER_NAME    = EARTH
REF_FRAME      = TEME
TIME_SYSTEM    = UTC
MEAN_ELEMENT_THEORY = SGP/SGP4

EPOCH          = 2026-03-28T14:54:18.651744
MEAN_MOTION    = 15.50570079
ECCENTRICITY   = .00021159
INCLINATION    = 42.9983
RA_OF_ASC_NODE = 302.4648
ARG_OF_PERICENTER = 264.1554
MEAN_ANOMALY   = 95.9065

EPHEMERIS_TYPE = 0
CLASSIFICATION_TYPE = U
NORAD_CAT_ID   = 68011
ELEMENT_SET_NO = 999
REV_AT_EPOCH   = 459
BSTAR          = .18126825E-2
MEAN_MOTION_DOT = .107439E-2
MEAN_MOTION_DDOT = 0

CCSDS_OMM_VERS = 2.0
CREATION_DATE  = 
ORIGINATOR     = 

OBJECT_NAME    = STARLINK-36936
OBJECT_ID      = 2026-039AC
CENTER_NAME    = EARTH
REF_FRAME      = TEME
TIME_SYSTEM    = UTC
MEAN_ELEMENT_THEORY = SGP/SGP4

EPOCH          = 2026-03-28T14:00:01.999872
MEAN_MOTION    = 15.40761478
ECCENTRICITY   = .00016757
INCLINATION    = 43.0006
RA_OF_ASC_NODE = 302.0712
ARG_OF_PERICENTER = 255.1285
MEAN_ANOMALY   = 142.5158

EPHEMERIS_TYPE = 0
CLASSIFICATION_TYPE = U
NORAD_CAT_ID   = 68012
ELEMENT_SET_NO = 999
REV_AT_EPOCH   = 591
BSTAR          = -.50958281E-1
MEAN_MOTION_DOT = -.1910138E-1
MEAN_MOTION_DDOT = 0

CCSDS_OMM_VERS = 2.0
CREATION_DATE  = 
ORIGINATOR     = 

OBJECT_NAME    = STARLINK-36967
OBJECT_ID      = 2026-039AD
CENTER_NAME    = EARTH
REF_FRAME      = TEME
TIME_SYSTEM    = UTC
MEAN_ELEMENT_THEORY = SGP/SGP4

EPOCH          = 2026-03-27T21:46:16.357728
MEAN_MOTION    = 15.50628686
ECCENTRICITY   = .0001653
INCLINATION    = 42.9999
RA_OF_ASC_NODE = 306.5649
ARG_OF_PERICENTER = 259.5586
MEAN_ANOMALY   = 100.5087

EPHEMERIS_TYPE = 0
CLASSIFICATION_TYPE = U
NORAD_CAT_ID   = 68013
ELEMENT_SET_NO = 999
REV_AT_EPOCH   = 448
BSTAR          = .18536E-2
MEAN_MOTION_DOT = .110139E-2
MEAN_MOTION_DDOT = 0

CCSDS_OMM_VERS = 2.0
CREATION_DATE  = 
ORIGINATOR     = 

OBJECT_NAME    = STARLINK-36985
OBJECT_ID      = 2026-039AE
CENTER_NAME    = EARTH
REF_FRAME      = TEME
TIME_SYSTEM    = UTC
MEAN_ELEMENT_THEORY = SGP/SGP4

EPOCH          = 2026-03-28T14:00:01.999872
MEAN_MOTION    = 15.28305995
ECCENTRICITY   = .00017045
INCLINATION    = 42.9992
RA_OF_ASC_NODE = 301.9307
ARG_OF_PERICENTER = 249.9847
MEAN_ANOMALY   = 200.8781

EPHEMERIS_TYPE = 0
CLASSIFICATION_TYPE = U
NORAD_CAT_ID   = 68014
ELEMENT_SET_NO = 999
REV_AT_EPOCH   = 591
BSTAR          = -.42264182E-1
MEAN_MOTION_DOT = -.1087855E-1
MEAN_MOTION_DDOT = 0

CCSDS_OMM_VERS = 2.0
CREATION_DATE  = 
ORIGINATOR     = 

OBJECT_NAME    = STARLINK-36335
OBJECT_ID      = 2026-040A
CENTER_NAME    = EARTH
REF_FRAME      = TEME
TIME_SYSTEM    = UTC
MEAN_ELEMENT_THEORY = SGP/SGP4

EPOCH          = 2026-03-27T20:23:02.423904
MEAN_MOTION    = 15.75259164
ECCENTRICITY   = .00012755
INCLINATION    = 97.2870
RA_OF_ASC_NODE = 36.1844
ARG_OF_PERICENTER = 92.9276
MEAN_ANOMALY   = 267.2135

EPHEMERIS_TYPE = 0
CLASSIFICATION_TYPE = U
NORAD_CAT_ID   = 68015
ELEMENT_SET_NO = 999
REV_AT_EPOCH   = 421
BSTAR          = .11885305E-2
MEAN_MOTION_DOT = .181507E-2
MEAN_MOTION_DDOT = 0

CCSDS_OMM_VERS = 2.0
CREATION_DATE  = 
ORIGINATOR     = 

OBJECT_NAME    = STARLINK-36923
OBJECT_ID      = 2026-040B
CENTER_NAME    = EARTH
REF_FRAME      = TEME
TIME_SYSTEM    = UTC
MEAN_ELEMENT_THEORY = SGP/SGP4

EPOCH          = 2026-03-28T14:39:16.410240
MEAN_MOTION    = 15.75284237
ECCENTRICITY   = .00025534
INCLINATION    = 97.2863
RA_OF_ASC_NODE = 36.9876
ARG_OF_PERICENTER = 65.1799
MEAN_ANOMALY   = 294.9731

EPHEMERIS_TYPE = 0
CLASSIFICATION_TYPE = U
NORAD_CAT_ID   = 68016
ELEMENT_SET_NO = 999
REV_AT_EPOCH   = 433
BSTAR          = .21283386E-2
MEAN_MOTION_DOT = .33131E-2
MEAN_MOTION_DDOT = 0

CCSDS_OMM_VERS = 2.0
CREATION_DATE  = 
ORIGINATOR     = 

OBJECT_NAME    = STARLINK-36568
OBJECT_ID      = 2026-040C
CENTER_NAME    = EARTH
REF_FRAME      = TEME
TIME_SYSTEM    = UTC
MEAN_ELEMENT_THEORY = SGP/SGP4

EPOCH          = 2026-03-28T14:38:15.669312
MEAN_MOTION    = 15.75255282
ECCENTRICITY   = .00028376
INCLINATION    = 97.2884
RA_OF_ASC_NODE = 36.9884
ARG_OF_PERICENTER = 74.5215
MEAN_ANOMALY   = 285.6363

EPHEMERIS_TYPE = 0
CLASSIFICATION_TYPE = U
NORAD_CAT_ID   = 68017
ELEMENT_SET_NO = 999
REV_AT_EPOCH   = 433
BSTAR          = .1539831E-2
MEAN_MOTION_DOT = .236712E-2
MEAN_MOTION_DDOT = 0

CCSDS_OMM_VERS = 2.0
CREATION_DATE  = 
ORIGINATOR     = 

OBJECT_NAME    = STARLINK-36930
OBJECT_ID      = 2026-040D
CENTER_NAME    = EARTH
REF_FRAME      = TEME
TIME_SYSTEM    = UTC
MEAN_ELEMENT_THEORY = SGP/SGP4

EPOCH          = 2026-03-28T14:00:01.999872
MEAN_MOTION    = 15.75186216
ECCENTRICITY   = .00016209
INCLINATION    = 97.2866
RA_OF_ASC_NODE = 36.9581
ARG_OF_PERICENTER = 87.8841
MEAN_ANOMALY   = 113.8531

EPHEMERIS_TYPE = 0
CLASSIFICATION_TYPE = U
NORAD_CAT_ID   = 68018
ELEMENT_SET_NO = 999
REV_AT_EPOCH   = 546
BSTAR          = -.3378092E-3
MEAN_MOTION_DOT = -.50214E-3
MEAN_MOTION_DDOT = 0

CCSDS_OMM_VERS = 2.0
CREATION_DATE  = 
ORIGINATOR     = 

OBJECT_NAME    = STARLINK-36921
OBJECT_ID      = 2026-040E
CENTER_NAME    = EARTH
REF_FRAME      = TEME
TIME_SYSTEM    = UTC
MEAN_ELEMENT_THEORY = SGP/SGP4

EPOCH          = 2026-03-28T14:34:41.689344
MEAN_MOTION    = 15.75269266
ECCENTRICITY   = .00018485
INCLINATION    = 97.2859
RA_OF_ASC_NODE = 36.9948
ARG_OF_PERICENTER = 81.0258
MEAN_ANOMALY   = 279.1216

EPHEMERIS_TYPE = 0
CLASSIFICATION_TYPE = U
NORAD_CAT_ID   = 68019
ELEMENT_SET_NO = 999
REV_AT_EPOCH   = 433
BSTAR          = .17238697E-2
MEAN_MOTION_DOT = .266083E-2
MEAN_MOTION_DDOT = 0

CCSDS_OMM_VERS = 2.0
CREATION_DATE  = 
ORIGINATOR     = 

OBJECT_NAME    = STARLINK-36928
OBJECT_ID      = 2026-040F
CENTER_NAME    = EARTH
REF_FRAME      = TEME
TIME_SYSTEM    = UTC
MEAN_ELEMENT_THEORY = SGP/SGP4

EPOCH          = 2026-03-28T14:36:14.119200
MEAN_MOTION    = 15.75267839
ECCENTRICITY   = .00041645
INCLINATION    = 97.2862
RA_OF_ASC_NODE = 36.9912
ARG_OF_PERICENTER = 68.5873
MEAN_ANOMALY   = 291.5836

EPHEMERIS_TYPE = 0
CLASSIFICATION_TYPE = U
NORAD_CAT_ID   = 68020
ELEMENT_SET_NO = 999
REV_AT_EPOCH   = 433
BSTAR          = .22165154E-2
MEAN_MOTION_DOT = .345425E-2
MEAN_MOTION_DDOT = 0

CCSDS_OMM_VERS = 2.0
CREATION_DATE  = 
ORIGINATOR     = 

OBJECT_NAME    = STARLINK-36858
OBJECT_ID      = 2026-040G
CENTER_NAME    = EARTH
REF_FRAME      = TEME
TIME_SYSTEM    = UTC
MEAN_ELEMENT_THEORY = SGP/SGP4

EPOCH          = 2026-03-24T12:55:13.776960
MEAN_MOTION    = 15.75331784
ECCENTRICITY   = .00016946
INCLINATION    = 97.2853
RA_OF_ASC_NODE = 32.8877
ARG_OF_PERICENTER = 78.8231
MEAN_ANOMALY   = 281.3225

EPHEMERIS_TYPE = 0
CLASSIFICATION_TYPE = U
NORAD_CAT_ID   = 68021
ELEMENT_SET_NO = 999
REV_AT_EPOCH   = 370
BSTAR          = .17848498E-2
MEAN_MOTION_DOT = .276588E-2
MEAN_MOTION_DDOT = 0

