STARLINK-36953          
1 68010U 26039AA  26087.58335648  .00060497  00000+0  21967-2 0  9992
2 68010  42.9991 302.0356 0002039 272.2196 136.5405 15.27478063  5915
STARLINK-36991          
1 68011U 26039AB  26087.62104921  .00107439  00000+0  18127-2 0  9998
2 68011  42.9983 302.4648 0002115 264.1554  95.9065 15.50570079  4597
STARLINK-36936          
1 68012U 26039AC  26087.58335648 -.01910138  00000+0 -50958-1 0  9994
2 68012  43.0006 302.0712 0001675 255.1285 142.5158 15.40761478  5918
STARLINK-36967          
1 68013U 26039AD  26086.90713377  .00110139  00000+0  18536-2 0  9996
2 68013  42.9999 306.5649 0001653 259.5586 100.5087 15.50628686  4484
STARLINK-36985          
1 68014U 26039AE  26087.58335648 -.01087855  00000+0 -42264-1 0  9998
2 68014  42.9992 301.9307 0001704 249.9847 200.8781 15.28305995  5912
STARLINK-36335          
1 68015U 26040A   26086.84933361  .00181507  00000+0  11885-2 0  9997
2 68015  97.2870  36.1844 0001275  92.9276 267.2135 15.75259164  4219
STARLINK-36923          
1 68016U 26040B   26087.61060660  .00331310  00000+0  21283-2 0  9999
2 68016  97.2863  36.9876 0002553  65.1799 294.9731 15.75284237  4338
STARLINK-36568          
1 68017U 26040C   26087.60990358  .00236712  00000+0  15398-2 0  9995
2 68017  97.2884  36.9884 0002837  74.5215 285.6363 15.75255282  4339
STARLINK-36930          
1 68018U 26040D   26087.58335648 -.00050214  00000+0 -33781-3 0  9998
2 68018  97.2866  36.9581 0001620  87.8841 113.8531 15.75186216  5469
STARLINK-36921          
1 68019U 26040E   26087.60742696  .00266083  00000+0  17239-2 0  9997
2 68019  97.2859  36.9948 0001848  81.0258 279.1216 15.75269266  4337
STARLINK-36928          
1 68020U 26040F   26087.60849675  .00345425  00000+0  22165-2 0  9996
2 68020  97.2862  36.9912 0004164  68.5873 291.5836 15.75267839  4331
STARLINK-36858          
1 68021U 26040G   26083.53835390  .00276588  00000+0  17848-2 0  9999
2 68021  97.2853  32.8877 0001694  78.8231 281.3225 15.75331784  3704
